{"type": "FeatureCollection", "features": [ {"type": "Feature", "properties": {"norad_id": 44506, "name": "GPS BIII-2  (PRN 18)", "group": "gnss", "lat": -17.306916051188235, "lon": 170.70834997239416, "alt_km": 20031.542202225653, "timestamp": "2025-12-15T10:55:21.385769+00:00", "meta": {"OBJECT_NAME": "GPS BIII-2  (PRN 18)", "OBJECT_ID": "2019-056A", "EPOCH": "2025-12-14T10:00:28.721376", "MEAN_MOTION": 2.00566469, "ECCENTRICITY": 0.00577186, "INCLINATION": 55.7208, "RA_OF_ASC_NODE": 338.4855, "ARG_OF_PERICENTER": 198.4901, "MEAN_ANOMALY": 332.9722, "EPHEMERIS_TYPE": 0, "CLASSIFICATION_TYPE": "U", "NORAD_CAT_ID": 44506, "ELEMENT_SET_NO": 999, "REV_AT_EPOCH": 4636, "BSTAR": 0, "MEAN_MOTION_DOT": -8.9e-07, "MEAN_MOTION_DDOT": 0}, "tle": {"line1": "1 44506U 19056A   25348.41699909 -.00000089  00000+0  00000+0 0  9995", "line2": "2 44506  55.7208 338.4855 0057718 198.4901 332.9722  2.00566469 46369"}}, "geometry": {"type": "Point", "coordinates": [170.70834997239416, -17.306916051188235]}}, {"type": "Feature", "properties": {"norad_id": 44542, "name": "BEIDOU-3 M24 (C46)", "group": "gnss", "lat": -53.24127826126716, "lon": 82.52504032406605, "alt_km": 21548.87339093796, "timestamp": "2025-12-15T10:55:21.385787+00:00", "meta": {"OBJECT_NAME": "BEIDOU-3 M24 (C46)", "OBJECT_ID": "2019-061A", "EPOCH": "2025-12-11T20:16:59.930112", "MEAN_MOTION": 1.86229199, "ECCENTRICITY": 0.00095416, "INCLINATION": 54.4002, "RA_OF_ASC_NODE": 189.0463, "ARG_OF_PERICENTER": 24.13, "MEAN_ANOMALY": 335.9744, "EPHEMERIS_TYPE": 0, "CLASSIFICATION_TYPE": "U", "NORAD_CAT_ID": 44542, "ELEMENT_SET_NO": 999, "REV_AT_EPOCH": 4230, "BSTAR": 0, "MEAN_MOTION_DOT": 7.3e-07, "MEAN_MOTION_DDOT": 0}, "tle": {"line1": "1 44542U 19061A   25345.84513808  .00000073  00000+0  00000+0 0  9990", "line2": "2 44542  54.4002 189.0463 0009541  24.1300 335.9744  1.86229199 42307"}}, "geometry": {"type": "Point", "coordinates": [82.52504032406605, -53.24127826126716]}}, {"type": "Feature", "properties": {"norad_id": 44543, "name": "BEIDOU-3 M23 (C45)", "group": "gnss", "lat": 5.552573348165293, "lon": 4.9043359984456725, "alt_km": 21542.746481021564, "timestamp": "2025-12-15T10:55:21.385804+00:00", "meta": {"OBJECT_NAME": "BEIDOU-3 M23 (C45)", "OBJECT_ID": "2019-061B", "EPOCH": "2025-12-12T05:53:39.748416", "MEAN_MOTION": 1.86227487, "ECCENTRICITY": 0.00061471, "INCLINATION": 54.3988, "RA_OF_ASC_NODE": 189.0008, "ARG_OF_PERICENTER": 23.325, "MEAN_ANOMALY": 158.0349, "EPHEMERIS_TYPE": 0, "CLASSIFICATION_TYPE": "U", "NORAD_CAT_ID": 44543, "ELEMENT_SET_NO": 999, "REV_AT_EPOCH": 4231, "BSTAR": 0, "MEAN_MOTION_DOT": 7.9e-07, "MEAN_MOTION_DDOT": 0}, "tle": {"line1": "1 44543U 19061B   25346.24559894  .00000079  00000+0  00000+0 0  9997", "line2": "2 44543  54.3988 189.0008 0006147  23.3250 158.0349  1.86227487 42313"}}, "geometry": {"type": "Point", "coordinates": [4.9043359984456725, 5.552573348165293]}}, {"type": "Feature", "properties": {"norad_id": 44624, "name": "EUTELSAT 5 WEST B (EGNOS/PRN 121)", "group": "gnss", "lat": -0.08723340440456405, "lon": -116.8231580815005, "alt_km": 35773.14347734623, "timestamp": "2025-12-15T10:55:21.385825+00:00", "meta": {"OBJECT_NAME": "EUTELSAT 5 WEST B (EGNOS/PRN 121)", "OBJECT_ID": "2019-067A", "EPOCH": "2025-12-14T21:57:19.642752", "MEAN_MOTION": 1.00272512, "ECCENTRICITY": 0.0003227, "INCLINATION": 0.0651, "RA_OF_ASC_NODE": 338.3531, "ARG_OF_PERICENTER": 286.172, "MEAN_ANOMALY": 143.635, "EPHEMERIS_TYPE": 0, "CLASSIFICATION_TYPE": "U", "NORAD_CAT_ID": 44624, "ELEMENT_SET_NO": 999, "REV_AT_EPOCH": 2258, "BSTAR": 0, "MEAN_MOTION_DOT": -2.2e-07, "MEAN_MOTION_DDOT": 0}, "tle": {"line1": "1 44624U 19067A   25348.91481068 -.00000022  00000+0  00000+0 0  9995", "line2": "2 44624   0.0651 338.3531 0003227 286.1720 143.6350  1.00272512 22589"}}, "geometry": {"type": "Point", "coordinates": [-116.8231580815005, -0.08723340440456405]}}, {"type": "Feature", "properties": {"norad_id": 44709, "name": "BEIDOU-3 IGSO-3 (C40)", "group": "gnss", "lat": 53.346190650730044, "lon": -7.826009705643775, "alt_km": 35863.910152624376, "timestamp": "2025-12-15T10:55:21.385843+00:00", "meta": {"OBJECT_NAME": "BEIDOU-3 IGSO-3 (C40)", "OBJECT_ID": "2019-073A", "EPOCH": "2025-11-20T07:11:22.740000", "MEAN_MOTION": 1.00250097, "ECCENTRICITY": 0.0044538, "INCLINATION": 55.163, "RA_OF_ASC_NODE": 283.159, "ARG_OF_PERICENTER": 191.5856, "MEAN_ANOMALY": 168.2409, "EPHEMERIS_TYPE": 0, "CLASSIFICATION_TYPE": "U", "NORAD_CAT_ID": 44709, "ELEMENT_SET_NO": 999, "REV_AT_EPOCH": 2236, "BSTAR": 0, "MEAN_MOTION_DOT": -2.06e-06, "MEAN_MOTION_DDOT": 0}, "tle": {"line1": "1 44709U 19073A   25324.29956875 -.00000206  00000+0  00000+0 0  9998", "line2": "2 44709  55.1630 283.1590 0044538 191.5856 168.2409  1.00250097 22360"}}, "geometry": {"type": "Point", "coordinates": [-7.826009705643775, 53.346190650730044]}}, {"type": "Feature", "properties": {"norad_id": 44793, "name": "BEIDOU-3 M22 (C44)", "group": "gnss", "lat": 6.1141187931674645, "lon": -49.284877474744654, "alt_km": 21512.05106961991, "timestamp": "2025-12-15T10:55:21.385868+00:00", "meta": {"OBJECT_NAME": "BEIDOU-3 M22 (C44)", "OBJECT_ID": "2019-078A", "EPOCH": "2025-12-13T07:06:19.529568", "MEAN_MOTION": 1.86231771, "ECCENTRICITY": 0.00057339, "INCLINATION": 54.1075, "RA_OF_ASC_NODE": 306.366, "ARG_OF_PERICENTER": 23.2965, "MEAN_ANOMALY": 336.7192, "EPHEMERIS_TYPE": 0, "CLASSIFICATION_TYPE": "U", "NORAD_CAT_ID": 44793, "ELEMENT_SET_NO": 999, "REV_AT_EPOCH": 4118, "BSTAR": 0, "MEAN_MOTION_DOT": -9.7e-07, "MEAN_MOTION_DDOT": 0}, "tle": {"line1": "1 44793U 19078A   25347.29605937 -.00000097  00000+0  00000+0 0  9999", "line2": "2 44793  54.1075 306.3660 0005733  23.2965 336.7192  1.86231771 41181"}}, "geometry": {"type": "Point", "coordinates": [-49.284877474744654, 6.1141187931674645]}}, {"type": "Feature", "properties": {"norad_id": 44794, "name": "BEIDOU-3 M21 (C43)", "group": "gnss", "lat": -53.758080246616636, "lon": -134.96879470842234, "alt_km": 21535.15859930252, "timestamp": "2025-12-15T10:55:21.385885+00:00", "meta": {"OBJECT_NAME": "BEIDOU-3 M21 (C43)", "OBJECT_ID": "2019-078B", "EPOCH": "2025-12-12T21:31:22.326816", "MEAN_MOTION": 1.86227454, "ECCENTRICITY": 0.00039343, "INCLINATION": 54.0813, "RA_OF_ASC_NODE": 306.3451, "ARG_OF_PERICENTER": 10.3646, "MEAN_ANOMALY": 349.6338, "EPHEMERIS_TYPE": 0, "CLASSIFICATION_TYPE": "U", "NORAD_CAT_ID": 44794, "ELEMENT_SET_NO": 999, "REV_AT_EPOCH": 4118, "BSTAR": 0, "MEAN_MOTION_DOT": -9.6e-07, "MEAN_MOTION_DDOT": 0}, "tle": {"line1": "1 44794U 19078B   25346.89678619 -.00000096  00000+0  00000+0 0  9991", "line2": "2 44794  54.0813 306.3451 0003934  10.3646 349.6338  1.86227454 41181"}}, "geometry": {"type": "Point", "coordinates": [-134.96879470842234, -53.758080246616636]}}, {"type": "Feature", "properties": {"norad_id": 44850, "name": "COSMOS 2544 (759)", "group": "gnss", "lat": -59.5507180309355, "lon": 28.986367164933707, "alt_km": 19108.37638429276, "timestamp": "2025-12-15T10:55:21.385903+00:00", "meta": {"OBJECT_NAME": "COSMOS 2544 (759)", "OBJECT_ID": "2019-088A", "EPOCH": "2025-12-12T17:34:49.236384", "MEAN_MOTION": 2.13101902, "ECCENTRICITY": 0.001403, "INCLINATION": 65.4597, "RA_OF_ASC_NODE": 79.9587, "ARG_OF_PERICENTER": 249.9371, "MEAN_ANOMALY": 109.9261, "EPHEMERIS_TYPE": 0, "CLASSIFICATION_TYPE": "U", "NORAD_CAT_ID": 44850, "ELEMENT_SET_NO": 999, "REV_AT_EPOCH": 4674, "BSTAR": 0, "MEAN_MOTION_DOT": -4.1e-07, "MEAN_MOTION_DDOT": 0}, "tle": {"line1": "1 44850U 19088A   25346.73251431 -.00000041  00000+0  00000+0 0  9997", "line2": "2 44850  65.4597  79.9587 0014030 249.9371 109.9261  2.13101902 46745"}}, "geometry": {"type": "Point", "coordinates": [28.986367164933707, -59.5507180309355]}}, {"type": "Feature", "properties": {"norad_id": 44864, "name": "BEIDOU-3 M19 (C41)", "group": "gnss", "lat": 51.066335130689666, "lon": -166.39377782028848, "alt_km": 21571.60817640179, "timestamp": "2025-12-15T10:55:21.385920+00:00", "meta": {"OBJECT_NAME": "BEIDOU-3 M19 (C41)", "OBJECT_ID": "2019-090A", "EPOCH": "2025-12-10T23:47:39.658272", "MEAN_MOTION": 1.86231263, "ECCENTRICITY": 0.0017877, "INCLINATION": 56.392, "RA_OF_ASC_NODE": 69.0187, "ARG_OF_PERICENTER": 285.2046, "MEAN_ANOMALY": 73.1126, "EPHEMERIS_TYPE": 0, "CLASSIFICATION_TYPE": "U", "NORAD_CAT_ID": 44864, "ELEMENT_SET_NO": 999, "REV_AT_EPOCH": 4072, "BSTAR": 0, "MEAN_MOTION_DOT": -6e-07, "MEAN_MOTION_DDOT": 0}, "tle": {"line1": "1 44864U 19090A   25344.99143123 -.00000060  00000+0  00000+0 0  9990", "line2": "2 44864  56.3920  69.0187 0017877 285.2046  73.1126  1.86231263 40726"}}, "geometry": {"type": "Point", "coordinates": [-166.39377782028848, 51.066335130689666]}}, {"type": "Feature", "properties": {"norad_id": 44865, "name": "BEIDOU-3 M20 (C42)", "group": "gnss", "lat": -16.930888544174355, "lon": -99.42665733832304, "alt_km": 21535.901127306617, "timestamp": "2025-12-15T10:55:21.385937+00:00", "meta": {"OBJECT_NAME": "BEIDOU-3 M20 (C42)", "OBJECT_ID": "2019-090B", "EPOCH": "2025-12-10T20:36:05.507712", "MEAN_MOTION": 1.86231317, "ECCENTRICITY": 0.0014897, "INCLINATION": 56.3937, "RA_OF_ASC_NODE": 69.0576, "ARG_OF_PERICENTER": 298.003, "MEAN_ANOMALY": 60.7372, "EPHEMERIS_TYPE": 0, "CLASSIFICATION_TYPE": "U", "NORAD_CAT_ID": 44865, "ELEMENT_SET_NO": 999, "REV_AT_EPOCH": 4070, "BSTAR": 0, "MEAN_MOTION_DOT": -5.8e-07, "MEAN_MOTION_DDOT": 0}, "tle": {"line1": "1 44865U 19090B   25344.85839708 -.00000058  00000+0  00000+0 0  9994", "line2": "2 44865  56.3937  69.0576 0014897 298.0030  60.7372  1.86231317 40704"}}, "geometry": {"type": "Point", "coordinates": [-99.42665733832304, -16.930888544174355]}}]}